[{"OBJECT_NAME":"STARLINK-30569","OBJECT_ID":"2023-158T","EPOCH":"2026-03-09T22:00:01.999584","MEAN_MOTION":15.15005129,"ECCENTRICITY":0.00022494,"INCLINATION":42.9997,"RA_OF_ASC_NODE":28.3107,"ARG_OF_PERICENTER":271.6745,"MEAN_ANOMALY":126.7361,"EPHEMERIS_TYPE":0,"CLASSIFICATION_TYPE":"U","NORAD_CAT_ID":58068,"ELEMENT_SET_NO":999,"REV_AT_EPOCH":558,"BSTAR":0.0041706163,"MEAN_MOTION_DOT":0.00079957,"MEAN_MOTION_DDOT":0},{"OBJECT_NAME":"NUSAT-51 (YVONNE BRILL)","OBJECT_ID":"2025-276CC","EPOCH":"2026-03-09T17:32:05.675136","MEAN_MOTION":15.18982762,"ECCENTRICITY":0.00029597,"INCLINATION":97.4274,"RA_OF_ASC_NODE":144.0362,"ARG_OF_PERICENTER":11.654,"MEAN_ANOMALY":348.4762,"EPHEMERIS_TYPE":0,"CLASSIFICATION_TYPE":"U","NORAD_CAT_ID":66740,"ELEMENT_SET_NO":999,"REV_AT_EPOCH":1532,"BSTAR":0.00039155865,"MEAN_MOTION_DOT":8.126e-5,"MEAN_MOTION_DDOT":0}]
